{
  "postcodes": [
    {
      "division_id": "2",
      "district_id": "40",
      "upazila": "Alikadam",
      "postOffice": "Alikadam",
      "postCode": "4650"
    },
    {
      "division_id": "2",
      "district_id": "40",
      "upazila": "Bandarban Sadar",
      "postOffice": "Bandarban Sadar",
      "postCode": "4600"
    },
    {
      "division_id": "2",
      "district_id": "40",
      "upazila": "Naikhong",
      "postOffice": "Naikhong",
      "postCode": "4660"
    },
    {
      "division_id": "2",
      "district_id": "40",
      "upazila": "Roanchhari",
      "postOffice": "Roanchhari",
      "postCode": "4610"
    },
    {
      "division_id": "2",
      "district_id": "40",
      "upazila": "Ruma",
      "postOffice": "Ruma",
      "postCode": "4620"
    },
    {
      "division_id": "2",
      "district_id": "40",
      "upazila": "Thanchi",
      "postOffice": "Lama",
      "postCode": "4641"
    },
    {
      "division_id": "2",
      "district_id": "40",
      "upazila": "Thanchi",
      "postOffice": "Thanchi",
      "postCode": "4630"
    },
    {
      "division_id": "2",
      "district_id": "41",
      "upazila": "Akhaura",
      "postOffice": "Akhaura",
      "postCode": "3450"
    },
    {
      "division_id": "2",
      "district_id": "41",
      "upazila": "Akhaura",
      "postOffice": "Azampur",
      "postCode": "3451"
    },
    {
      "division_id": "2",
      "district_id": "41",
      "upazila": "Akhaura",
      "postOffice": "Gangasagar",
      "postCode": "3452"
    },
    {
      "division_id": "2",
      "district_id": "41",
      "upazila": "Banchharampur",
      "postOffice": "Banchharampur",
      "postCode": "3420"
    },
    {
      "division_id": "2",
      "district_id": "41",
      "upazila": "Brahamanbaria Sadar",
      "postOffice": "Ashuganj",
      "postCode": "3402"
    },
    {
      "division_id": "2",
      "district_id": "41",
      "upazila": "Brahamanbaria Sadar",
      "postOffice": "Ashuganj Share",
      "postCode": "3403"
    },
    {
      "division_id": "2",
      "district_id": "41",
      "upazila": "Brahamanbaria Sadar",
      "postOffice": "Brahamanbaria Sadar",
      "postCode": "3400"
    },
    {
      "division_id": "2",
      "district_id": "41",
      "upazila": "Brahamanbaria Sadar",
      "postOffice": "Poun",
      "postCode": "3404"
    },
    {
      "division_id": "2",
      "district_id": "41",
      "upazila": "Brahamanbaria Sadar",
      "postOffice": "Talshahar",
      "postCode": "3401"
    },
    {
      "division_id": "2",
      "district_id": "41",
      "upazila": "Kasba",
      "postOffice": "Chandidar",
      "postCode": "3462"
    },
    {
      "division_id": "2",
      "district_id": "41",
      "upazila": "Kasba",
      "postOffice": "Chargachh",
      "postCode": "3463"
    },
    {
      "division_id": "2",
      "district_id": "41",
      "upazila": "Kasba",
      "postOffice": "Gopinathpur",
      "postCode": "3464"
    },
    {
      "division_id": "2",
      "district_id": "41",
      "upazila": "Kasba",
      "postOffice": "Kasba",
      "postCode": "3460"
    },
    {
      "division_id": "2",
      "district_id": "41",
      "upazila": "Kasba",
      "postOffice": "Kuti",
      "postCode": "3461"
    },
    {
      "division_id": "2",
      "district_id": "41",
      "upazila": "Nabinagar",
      "postOffice": "Jibanganj",
      "postCode": "3419"
    },
    {
      "division_id": "2",
      "district_id": "41",
      "upazila": "Nabinagar",
      "postOffice": "Kaitala",
      "postCode": "3417"
    },
    {
      "division_id": "2",
      "district_id": "41",
      "upazila": "Nabinagar",
      "postOffice": "Laubfatehpur",
      "postCode": "3411"
    },
    {
      "division_id": "2",
      "district_id": "41",
      "upazila": "Nabinagar",
      "postOffice": "Nabinagar",
      "postCode": "3410"
    },
    {
      "division_id": "2",
      "district_id": "41",
      "upazila": "Nabinagar",
      "postOffice": "Rasullabad",
      "postCode": "3412"
    },
    {
      "division_id": "2",
      "district_id": "41",
      "upazila": "Nabinagar",
      "postOffice": "Ratanpur",
      "postCode": "3414"
    },
    {
      "division_id": "2",
      "district_id": "41",
      "upazila": "Nabinagar",
      "postOffice": "Salimganj",
      "postCode": "3418"
    },
    {
      "division_id": "2",
      "district_id": "41",
      "upazila": "Nabinagar",
      "postOffice": "Shahapur",
      "postCode": "3415"
    },
    {
      "division_id": "2",
      "district_id": "41",
      "upazila": "Nabinagar",
      "postOffice": "Shamgram",
      "postCode": "3413"
    },
    {
      "division_id": "2",
      "district_id": "41",
      "upazila": "Nasirnagar",
      "postOffice": "Fandauk",
      "postCode": "3441"
    },
    {
      "division_id": "2",
      "district_id": "41",
      "upazila": "Nasirnagar",
      "postOffice": "Nasirnagar",
      "postCode": "3440"
    },
    {
      "division_id": "2",
      "district_id": "41",
      "upazila": "Sarail",
      "postOffice": "Chandura",
      "postCode": "3432"
    },
    {
      "division_id": "2",
      "district_id": "41",
      "upazila": "Sarail",
      "postOffice": "Sarial",
      "postCode": "3430"
    },
    {
      "division_id": "2",
      "district_id": "41",
      "upazila": "Sarail",
      "postOffice": "Shahbajpur",
      "postCode": "3431"
    },
    {
      "division_id": "2",
      "district_id": "42",
      "upazila": "Chandpur Sadar",
      "postOffice": "Baburhat",
      "postCode": "3602"
    },
    {
      "division_id": "2",
      "district_id": "42",
      "upazila": "Chandpur Sadar",
      "postOffice": "Chandpur Sadar",
      "postCode": "3600"
    },
    {
      "division_id": "2",
      "district_id": "42",
      "upazila": "Chandpur Sadar",
      "postOffice": "Puranbazar",
      "postCode": "3601"
    },
    {
      "division_id": "2",
      "district_id": "42",
      "upazila": "Chandpur Sadar",
      "postOffice": "Sahatali",
      "postCode": "3603"
    },
    {
      "division_id": "2",
      "district_id": "42",
      "upazila": "Faridganj",
      "postOffice": "Chandra",
      "postCode": "3651"
    },
    {
      "division_id": "2",
      "district_id": "42",
      "upazila": "Faridganj",
      "postOffice": "Faridganj",
      "postCode": "3650"
    },
    {
      "division_id": "2",
      "district_id": "42",
      "upazila": "Faridganj",
      "postOffice": "Gridkaliandia",
      "postCode": "3653"
    },
    {
      "division_id": "2",
      "district_id": "42",
      "upazila": "Faridganj",
      "postOffice": "Islampur Shah Isain",
      "postCode": "3655"
    },
    {
      "division_id": "2",
      "district_id": "42",
      "upazila": "Faridganj",
      "postOffice": "Rampurbazar",
      "postCode": "3654"
    },
    {
      "division_id": "2",
      "district_id": "42",
      "upazila": "Faridganj",
      "postOffice": "Rupsha",
      "postCode": "3652"
    },
    {
      "division_id": "2",
      "district_id": "42",
      "upazila": "Hajiganj",
      "postOffice": "Bolakhal",
      "postCode": "3611"
    },
    {
      "division_id": "2",
      "district_id": "42",
      "upazila": "Hajiganj",
      "postOffice": "Hajiganj",
      "postCode": "3610"
    },
    {
      "division_id": "2",
      "district_id": "42",
      "upazila": "Hayemchar",
      "postOffice": "Gandamara",
      "postCode": "3661"
    },
    {
      "division_id": "2",
      "district_id": "42",
      "upazila": "Hayemchar",
      "postOffice": "Hayemchar",
      "postCode": "3660"
    },
    {
      "division_id": "2",
      "district_id": "42",
      "upazila": "Kachua",
      "postOffice": "Kachua",
      "postCode": "3630"
    },
    {
      "division_id": "2",
      "district_id": "42",
      "upazila": "Kachua",
      "postOffice": "Pak Shrirampur",
      "postCode": "3631"
    },
    {
      "division_id": "2",
      "district_id": "42",
      "upazila": "Kachua",
      "postOffice": "Rahima Nagar",
      "postCode": "3632"
    },
    {
      "division_id": "2",
      "district_id": "42",
      "upazila": "Kachua",
      "postOffice": "Shachar",
      "postCode": "3633"
    },
    {
      "division_id": "2",
      "district_id": "42",
      "upazila": "Matlobganj",
      "postOffice": "Kalipur",
      "postCode": "3642"
    },
    {
      "division_id": "2",
      "district_id": "42",
      "upazila": "Matlobganj",
      "postOffice": "Matlobganj",
      "postCode": "3640"
    },
    {
      "division_id": "2",
      "district_id": "42",
      "upazila": "Matlobganj",
      "postOffice": "Mohanpur",
      "postCode": "3641"
    },
    {
      "division_id": "2",
      "district_id": "42",
      "upazila": "Shahrasti",
      "postOffice": "Chotoshi",
      "postCode": "3623"
    },
    {
      "division_id": "2",
      "district_id": "42",
      "upazila": "Shahrasti",
      "postOffice": "Islamia Madrasha",
      "postCode": "3624"
    },
    {
      "division_id": "2",
      "district_id": "42",
      "upazila": "Shahrasti",
      "postOffice": "Khilabazar",
      "postCode": "3621"
    },
    {
      "division_id": "2",
      "district_id": "42",
      "upazila": "Shahrasti",
      "postOffice": "Pashchim Kherihar Al",
      "postCode": "3622"
    },
    {
      "division_id": "2",
      "district_id": "42",
      "upazila": "Shahrasti",
      "postOffice": "Shahrasti",
      "postCode": "3620"
    },
    {
      "division_id": "2",
      "district_id": "43",
      "upazila": "Anawara",
      "postOffice": "Anowara",
      "postCode": "4376"
    },
    {
      "division_id": "2",
      "district_id": "43",
      "upazila": "Anawara",
      "postOffice": "Battali",
      "postCode": "4378"
    },
    {
      "division_id": "2",
      "district_id": "43",
      "upazila": "Anawara",
      "postOffice": "Paroikora",
      "postCode": "4377"
    },
    {
      "division_id": "2",
      "district_id": "43",
      "upazila": "Boalkhali",
      "postOffice": "Boalkhali",
      "postCode": "4366"
    },
    {
      "division_id": "2",
      "district_id": "43",
      "upazila": "Boalkhali",
      "postOffice": "Charandwip",
      "postCode": "4369"
    },
    {
      "division_id": "2",
      "district_id": "43",
      "upazila": "Boalkhali",
      "postOffice": "Iqbal Park",
      "postCode": "4365"
    },
    {
      "division_id": "2",
      "district_id": "43",
      "upazila": "Boalkhali",
      "postOffice": "Kadurkhal",
      "postCode": "4368"
    },
    {
      "division_id": "2",
      "district_id": "43",
      "upazila": "Boalkhali",
      "postOffice": "Kanungopara",
      "postCode": "4363"
    },
    {
      "division_id": "2",
      "district_id": "43",
      "upazila": "Boalkhali",
      "postOffice": "Sakpura",
      "postCode": "4367"
    },
    {
      "division_id": "2",
      "district_id": "43",
      "upazila": "Boalkhali",
      "postOffice": "Saroatoli",
      "postCode": "4364"
    },
    {
      "division_id": "2",
      "district_id": "43",
      "upazila": "Chittagong Sadar",
      "postOffice": "Al- Amin Baria Madra",
      "postCode": "4221"
    },
    {
      "division_id": "2",
      "district_id": "43",
      "upazila": "Chittagong Sadar",
      "postOffice": "Amin Jute Mills",
      "postCode": "4211"
    },
    {
      "division_id": "2",
      "district_id": "43",
      "upazila": "Chittagong Sadar",
      "postOffice": "Anandabazar",
      "postCode": "4215"
    },
    {
      "division_id": "2",
      "district_id": "43",
      "upazila": "Chittagong Sadar",
      "postOffice": "Bayezid Bostami",
      "postCode": "4210"
    },
    {
      "division_id": "2",
      "district_id": "43",
      "upazila": "Chittagong Sadar",
      "postOffice": "Chandgaon",
      "postCode": "4212"
    },
    {
      "division_id": "2",
      "district_id": "43",
      "upazila": "Chittagong Sadar",
      "postOffice": "Chawkbazar",
      "postCode": "4203"
    },
    {
      "division_id": "2",
      "district_id": "43",
      "upazila": "Chittagong Sadar",
      "postOffice": "Chitt. Cantonment",
      "postCode": "4220"
    },
    {
      "division_id": "2",
      "district_id": "43",
      "upazila": "Chittagong Sadar",
      "postOffice": "Chitt. Customs Acca",
      "postCode": "4219"
    },
    {
      "division_id": "2",
      "district_id": "43",
      "upazila": "Chittagong Sadar",
      "postOffice": "Chitt. Politechnic In",
      "postCode": "4209"
    },
    {
      "division_id": "2",
      "district_id": "43",
      "upazila": "Chittagong Sadar",
      "postOffice": "Chitt. Sailers Colon",
      "postCode": "4218"
    },
    {
      "division_id": "2",
      "district_id": "43",
      "upazila": "Chittagong Sadar",
      "postOffice": "Chittagong Airport",
      "postCode": "4205"
    },
    {
      "division_id": "2",
      "district_id": "43",
      "upazila": "Chittagong Sadar",
      "postOffice": "Chittagong Bandar",
      "postCode": "4100"
    },
    {
      "division_id": "2",
      "district_id": "43",
      "upazila": "Chittagong Sadar",
      "postOffice": "Chittagong GPO",
      "postCode": "4000"
    },
    {
      "division_id": "2",
      "district_id": "43",
      "upazila": "Chittagong Sadar",
      "postOffice": "Export Processing",
      "postCode": "4223"
    },
    {
      "division_id": "2",
      "district_id": "43",
      "upazila": "Chittagong Sadar",
      "postOffice": "Firozshah",
      "postCode": "4207"
    },
    {
      "division_id": "2",
      "district_id": "43",
      "upazila": "Chittagong Sadar",
      "postOffice": "Halishahar",
      "postCode": "4216"
    },
    {
      "division_id": "2",
      "district_id": "43",
      "upazila": "Chittagong Sadar",
      "postOffice": "Halishshar",
      "postCode": "4225"
    },
    {
      "division_id": "2",
      "district_id": "43",
      "upazila": "Chittagong Sadar",
      "postOffice": "Jalalabad",
      "postCode": "4214"
    },
    {
      "division_id": "2",
      "district_id": "43",
      "upazila": "Chittagong Sadar",
      "postOffice": "Jaldia Merine Accade",
      "postCode": "4206"
    },
    {
      "division_id": "2",
      "district_id": "43",
      "upazila": "Chittagong Sadar",
      "postOffice": "Middle Patenga",
      "postCode": "4222"
    },
    {
      "division_id": "2",
      "district_id": "43",
      "upazila": "Chittagong Sadar",
      "postOffice": "Mohard",
      "postCode": "4208"
    },
    {
      "division_id": "2",
      "district_id": "43",
      "upazila": "Chittagong Sadar",
      "postOffice": "North Halishahar",
      "postCode": "4226"
    },
    {
      "division_id": "2",
      "district_id": "43",
      "upazila": "Chittagong Sadar",
      "postOffice": "North Katuli",
      "postCode": "4217"
    },
    {
      "division_id": "2",
      "district_id": "43",
      "upazila": "Chittagong Sadar",
      "postOffice": "Pahartoli",
      "postCode": "4202"
    },
    {
      "division_id": "2",
      "district_id": "43",
      "upazila": "Chittagong Sadar",
      "postOffice": "Patenga",
      "postCode": "4204"
    },
    {
      "division_id": "2",
      "district_id": "43",
      "upazila": "Chittagong Sadar",
      "postOffice": "Rampura TSO",
      "postCode": "4224"
    },
    {
      "division_id": "2",
      "district_id": "43",
      "upazila": "Chittagong Sadar",
      "postOffice": "Wazedia",
      "postCode": "4213"
    },
    {
      "division_id": "2",
      "district_id": "43",
      "upazila": "East Joara",
      "postOffice": "Barma",
      "postCode": "4383"
    },
    {
      "division_id": "2",
      "district_id": "43",
      "upazila": "East Joara",
      "postOffice": "Dohazari",
      "postCode": "4382"
    },
    {
      "division_id": "2",
      "district_id": "43",
      "upazila": "East Joara",
      "postOffice": "East Joara",
      "postCode": "4380"
    },
    {
      "division_id": "2",
      "district_id": "43",
      "upazila": "East Joara",
      "postOffice": "Gachbaria",
      "postCode": "4381"
    },
    {
      "division_id": "2",
      "district_id": "43",
      "upazila": "Fatikchhari",
      "postOffice": "Bhandar Sharif",
      "postCode": "4352"
    },
    {
      "division_id": "2",
      "district_id": "43",
      "upazila": "Fatikchhari",
      "postOffice": "Fatikchhari",
      "postCode": "4350"
    },
    {
      "division_id": "2",
      "district_id": "43",
      "upazila": "Fatikchhari",
      "postOffice": "Harualchhari",
      "postCode": "4354"
    },
    {
      "division_id": "2",
      "district_id": "43",
      "upazila": "Fatikchhari",
      "postOffice": "Najirhat",
      "postCode": "4353"
    },
    {
      "division_id": "2",
      "district_id": "43",
      "upazila": "Fatikchhari",
      "postOffice": "Nanupur",
      "postCode": "4351"
    },
    {
      "division_id": "2",
      "district_id": "43",
      "upazila": "Fatikchhari",
      "postOffice": "Narayanhat",
      "postCode": "4355"
    },
    {
      "division_id": "2",
      "district_id": "43",
      "upazila": "Hathazari",
      "postOffice": "Chitt.University",
      "postCode": "4331"
    },
    {
      "division_id": "2",
      "district_id": "43",
      "upazila": "Hathazari",
      "postOffice": "Fatahabad",
      "postCode": "4335"
    },
    {
      "division_id": "2",
      "district_id": "43",
      "upazila": "Hathazari",
      "postOffice": "Gorduara",
      "postCode": "4332"
    },
    {
      "division_id": "2",
      "district_id": "43",
      "upazila": "Hathazari",
      "postOffice": "Hathazari",
      "postCode": "4330"
    },
    {
      "division_id": "2",
      "district_id": "43",
      "upazila": "Hathazari",
      "postOffice": "Katirhat",
      "postCode": "4333"
    },
    {
      "division_id": "2",
      "district_id": "43",
      "upazila": "Hathazari",
      "postOffice": "Madrasa",
      "postCode": "4339"
    },
    {
      "division_id": "2",
      "district_id": "43",
      "upazila": "Hathazari",
      "postOffice": "Mirzapur",
      "postCode": "4334"
    },
    {
      "division_id": "2",
      "district_id": "43",
      "upazila": "Hathazari",
      "postOffice": "Nuralibari",
      "postCode": "4337"
    },
    {
      "division_id": "2",
      "district_id": "43",
      "upazila": "Hathazari",
      "postOffice": "Yunus Nagar",
      "postCode": "4338"
    },
    {
      "division_id": "2",
      "district_id": "43",
      "upazila": "Jaldi",
      "postOffice": "Banigram",
      "postCode": "4393"
    },
    {
      "division_id": "2",
      "district_id": "43",
      "upazila": "Jaldi",
      "postOffice": "Gunagari",
      "postCode": "4392"
    },
    {
      "division_id": "2",
      "district_id": "43",
      "upazila": "Jaldi",
      "postOffice": "Jaldi",
      "postCode": "4390"
    },
    {
      "division_id": "2",
      "district_id": "43",
      "upazila": "Jaldi",
      "postOffice": "Khan Bahadur",
      "postCode": "4391"
    },
    {
      "division_id": "2",
      "district_id": "43",
      "upazila": "Lohagara",
      "postOffice": "Chunti",
      "postCode": "4398"
    },
    {
      "division_id": "2",
      "district_id": "43",
      "upazila": "Lohagara",
      "postOffice": "Lohagara",
      "postCode": "4396"
    },
    {
      "division_id": "2",
      "district_id": "43",
      "upazila": "Lohagara",
      "postOffice": "Padua",
      "postCode": "4397"
    },
    {
      "division_id": "2",
      "district_id": "43",
      "upazila": "Mirsharai",
      "postOffice": "Abutorab",
      "postCode": "4321"
    },
    {
      "division_id": "2",
      "district_id": "43",
      "upazila": "Mirsharai",
      "postOffice": "Azampur",
      "postCode": "4325"
    },
    {
      "division_id": "2",
      "district_id": "43",
      "upazila": "Mirsharai",
      "postOffice": "Bharawazhat",
      "postCode": "4323"
    },
    {
      "division_id": "2",
      "district_id": "43",
      "upazila": "Mirsharai",
      "postOffice": "Darrogahat",
      "postCode": "4322"
    },
    {
      "division_id": "2",
      "district_id": "43",
      "upazila": "Mirsharai",
      "postOffice": "Joarganj",
      "postCode": "4324"
    },
    {
      "division_id": "2",
      "district_id": "43",
      "upazila": "Mirsharai",
      "postOffice": "Korerhat",
      "postCode": "4327"
    },
    {
      "division_id": "2",
      "district_id": "43",
      "upazila": "Mirsharai",
      "postOffice": "Mirsharai",
      "postCode": "4320"
    },
    {
      "division_id": "2",
      "district_id": "43",
      "upazila": "Mirsharai",
      "postOffice": "Mohazanhat",
      "postCode": "4328"
    },
    {
      "division_id": "2",
      "district_id": "43",
      "upazila": "Patiya",
      "postOffice": "Budhpara",
      "postCode": "4371"
    },
    {
      "division_id": "2",
      "district_id": "43",
      "upazila": "Patiya",
      "postOffice": "Patiya Head Office",
      "postCode": "4370"
    },
    {
      "division_id": "2",
      "district_id": "43",
      "upazila": "Rangunia",
      "postOffice": "Dhamair",
      "postCode": "4361"
    },
    {
      "division_id": "2",
      "district_id": "43",
      "upazila": "Rangunia",
      "postOffice": "Rangunia",
      "postCode": "4360"
    },
    {
      "division_id": "2",
      "district_id": "43",
      "upazila": "Rouzan",
      "postOffice": "B.I.T Post Office",
      "postCode": "4349"
    },
    {
      "division_id": "2",
      "district_id": "43",
      "upazila": "Rouzan",
      "postOffice": "Beenajuri",
      "postCode": "4341"
    },
    {
      "division_id": "2",
      "district_id": "43",
      "upazila": "Rouzan",
      "postOffice": "Dewanpur",
      "postCode": "4347"
    },
    {
      "division_id": "2",
      "district_id": "43",
      "upazila": "Rouzan",
      "postOffice": "Fatepur",
      "postCode": "4345"
    },
    {
      "division_id": "2",
      "district_id": "43",
      "upazila": "Rouzan",
      "postOffice": "Gahira",
      "postCode": "4343"
    },
    {
      "division_id": "2",
      "district_id": "43",
      "upazila": "Rouzan",
      "postOffice": "Guzra Noapara",
      "postCode": "4346"
    },
    {
      "division_id": "2",
      "district_id": "43",
      "upazila": "Rouzan",
      "postOffice": "jagannath Hat",
      "postCode": "4344"
    },
    {
      "division_id": "2",
      "district_id": "43",
      "upazila": "Rouzan",
      "postOffice": "Kundeshwari",
      "postCode": "4342"
    },
    {
      "division_id": "2",
      "district_id": "43",
      "upazila": "Rouzan",
      "postOffice": "Mohamuni",
      "postCode": "4348"
    },
    {
      "division_id": "2",
      "district_id": "43",
      "upazila": "Rouzan",
      "postOffice": "Rouzan",
      "postCode": "4340"
    },
    {
      "division_id": "2",
      "district_id": "43",
      "upazila": "Sandwip",
      "postOffice": "Sandwip",
      "postCode": "4300"
    },
    {
      "division_id": "2",
      "district_id": "43",
      "upazila": "Sandwip",
      "postOffice": "Shiberhat",
      "postCode": "4301"
    },
    {
      "division_id": "2",
      "district_id": "43",
      "upazila": "Sandwip",
      "postOffice": "Urirchar",
      "postCode": "4302"
    },
    {
      "division_id": "2",
      "district_id": "43",
      "upazila": "Satkania",
      "postOffice": "Baitul Ijjat",
      "postCode": "4387"
    },
    {
      "division_id": "2",
      "district_id": "43",
      "upazila": "Satkania",
      "postOffice": "Bazalia",
      "postCode": "4388"
    },
    {
      "division_id": "2",
      "district_id": "43",
      "upazila": "Satkania",
      "postOffice": "Satkania",
      "postCode": "4386"
    },
    {
      "division_id": "2",
      "district_id": "43",
      "upazila": "Sitakunda",
      "postOffice": "Barabkunda",
      "postCode": "4312"
    },
    {
      "division_id": "2",
      "district_id": "43",
      "upazila": "Sitakunda",
      "postOffice": "Baroidhala",
      "postCode": "4311"
    },
    {
      "division_id": "2",
      "district_id": "43",
      "upazila": "Sitakunda",
      "postOffice": "Bawashbaria",
      "postCode": "4313"
    },
    {
      "division_id": "2",
      "district_id": "43",
      "upazila": "Sitakunda",
      "postOffice": "Bhatiari",
      "postCode": "4315"
    },
    {
      "division_id": "2",
      "district_id": "43",
      "upazila": "Sitakunda",
      "postOffice": "Fouzdarhat",
      "postCode": "4316"
    },
    {
      "division_id": "2",
      "district_id": "43",
      "upazila": "Sitakunda",
      "postOffice": "Jafrabad",
      "postCode": "4317"
    },
    {
      "division_id": "2",
      "district_id": "43",
      "upazila": "Sitakunda",
      "postOffice": "Kumira",
      "postCode": "4314"
    },
    {
      "division_id": "2",
      "district_id": "43",
      "upazila": "Sitakunda",
      "postOffice": "Sitakunda",
      "postCode": "4310"
    },
    {
      "division_id": "2",
      "district_id": "44",
      "upazila": "Barura",
      "postOffice": "Barura",
      "postCode": "3560"
    },
    {
      "division_id": "2",
      "district_id": "44",
      "upazila": "Barura",
      "postOffice": "Murdafarganj",
      "postCode": "3562"
    },
    {
      "division_id": "2",
      "district_id": "44",
      "upazila": "Barura",
      "postOffice": "Poyalgachha",
      "postCode": "3561"
    },
    {
      "division_id": "2",
      "district_id": "44",
      "upazila": "Brahmanpara",
      "postOffice": "Brahmanpara",
      "postCode": "3526"
    },
    {
      "division_id": "2",
      "district_id": "44",
      "upazila": "Burichang",
      "postOffice": "Burichang",
      "postCode": "3520"
    },
    {
      "division_id": "2",
      "district_id": "44",
      "upazila": "Burichang",
      "postOffice": "Maynamoti bazar",
      "postCode": "3521"
    },
    {
      "division_id": "2",
      "district_id": "44",
      "upazila": "Chandina",
      "postOffice": "Chandia",
      "postCode": "3510"
    },
    {
      "division_id": "2",
      "district_id": "44",
      "upazila": "Chandina",
      "postOffice": "Madhaiabazar",
      "postCode": "3511"
    },
    {
      "division_id": "2",
      "district_id": "44",
      "upazila": "Chouddagram",
      "postOffice": "Batisa",
      "postCode": "3551"
    },
    {
      "division_id": "2",
      "district_id": "44",
      "upazila": "Chouddagram",
      "postOffice": "Chiora",
      "postCode": "3552"
    },
    {
      "division_id": "2",
      "district_id": "44",
      "upazila": "Chouddagram",
      "postOffice": "Chouddagram",
      "postCode": "3550"
    },
    {
      "division_id": "2",
      "district_id": "44",
      "upazila": "Comilla Sadar",
      "postOffice": "Comilla Contoment",
      "postCode": "3501"
    },
    {
      "division_id": "2",
      "district_id": "44",
      "upazila": "Comilla Sadar",
      "postOffice": "Comilla Sadar",
      "postCode": "3500"
    },
    {
      "division_id": "2",
      "district_id": "44",
      "upazila": "Comilla Sadar",
      "postOffice": "Courtbari",
      "postCode": "3503"
    },
    {
      "division_id": "2",
      "district_id": "44",
      "upazila": "Comilla Sadar",
      "postOffice": "Halimanagar",
      "postCode": "3502"
    },
    {
      "division_id": "2",
      "district_id": "44",
      "upazila": "Comilla Sadar",
      "postOffice": "Suaganj",
      "postCode": "3504"
    },
    {
      "division_id": "2",
      "district_id": "44",
      "upazila": "Daudkandi",
      "postOffice": "Dashpara",
      "postCode": "3518"
    },
    {
      "division_id": "2",
      "district_id": "44",
      "upazila": "Daudkandi",
      "postOffice": "Daudkandi",
      "postCode": "3516"
    },
    {
      "division_id": "2",
      "district_id": "44",
      "upazila": "Daudkandi",
      "postOffice": "Eliotganj",
      "postCode": "3519"
    },
    {
      "division_id": "2",
      "district_id": "44",
      "upazila": "Daudkandi",
      "postOffice": "Gouripur",
      "postCode": "3517"
    },
    {
      "division_id": "2",
      "district_id": "44",
      "upazila": "Davidhar",
      "postOffice": "Barashalghar",
      "postCode": "3532"
    },
    {
      "division_id": "2",
      "district_id": "44",
      "upazila": "Davidhar",
      "postOffice": "Davidhar",
      "postCode": "3530"
    },
    {
      "division_id": "2",
      "district_id": "44",
      "upazila": "Davidhar",
      "postOffice": "Dhamtee",
      "postCode": "3533"
    },
    {
      "division_id": "2",
      "district_id": "44",
      "upazila": "Davidhar",
      "postOffice": "Gangamandal",
      "postCode": "3531"
    },
    {
      "division_id": "2",
      "district_id": "44",
      "upazila": "Homna",
      "postOffice": "Homna",
      "postCode": "3546"
    },
    {
      "division_id": "2",
      "district_id": "44",
      "upazila": "Laksam",
      "postOffice": "Bipulasar",
      "postCode": "3572"
    },
    {
      "division_id": "2",
      "district_id": "44",
      "upazila": "Laksam",
      "postOffice": "Laksam",
      "postCode": "3570"
    },
    {
      "division_id": "2",
      "district_id": "44",
      "upazila": "Laksam",
      "postOffice": "Lakshamanpur",
      "postCode": "3571"
    },
    {
      "division_id": "2",
      "district_id": "44",
      "upazila": "Langalkot",
      "postOffice": "Chhariabazar",
      "postCode": "3582"
    },
    {
      "division_id": "2",
      "district_id": "44",
      "upazila": "Langalkot",
      "postOffice": "Dhalua",
      "postCode": "3581"
    },
    {
      "division_id": "2",
      "district_id": "44",
      "upazila": "Langalkot",
      "postOffice": "Gunabati",
      "postCode": "3583"
    },
    {
      "division_id": "2",
      "district_id": "44",
      "upazila": "Langalkot",
      "postOffice": "Langalkot",
      "postCode": "3580"
    },
    {
      "division_id": "2",
      "district_id": "44",
      "upazila": "Muradnagar",
      "postOffice": "Bangra",
      "postCode": "3543"
    },
    {
      "division_id": "2",
      "district_id": "44",
      "upazila": "Muradnagar",
      "postOffice": "Companyganj",
      "postCode": "3542"
    },
    {
      "division_id": "2",
      "district_id": "44",
      "upazila": "Muradnagar",
      "postOffice": "Muradnagar",
      "postCode": "3540"
    },
    {
      "division_id": "2",
      "district_id": "44",
      "upazila": "Muradnagar",
      "postOffice": "Pantibazar",
      "postCode": "3545"
    },
    {
      "division_id": "2",
      "district_id": "44",
      "upazila": "Muradnagar",
      "postOffice": "Ramchandarpur",
      "postCode": "3541"
    },
    {
      "division_id": "2",
      "district_id": "44",
      "upazila": "Muradnagar",
      "postOffice": "Sonakanda",
      "postCode": "3544"
    },
    {
      "division_id": "2",
      "district_id": "45",
      "upazila": "Chiringga",
      "postOffice": "Badarkali",
      "postCode": "4742"
    },
    {
      "division_id": "2",
      "district_id": "45",
      "upazila": "Chiringga",
      "postOffice": "Chiringga",
      "postCode": "4740"
    },
    {
      "division_id": "2",
      "district_id": "45",
      "upazila": "Chiringga",
      "postOffice": "Chiringga S.O",
      "postCode": "4741"
    },
    {
      "division_id": "2",
      "district_id": "45",
      "upazila": "Chiringga",
      "postOffice": "Malumghat",
      "postCode": "4743"
    },
    {
      "division_id": "2",
      "district_id": "45",
      "upazila": "Coxs Bazar Sadar",
      "postOffice": "Coxs Bazar Sadar",
      "postCode": "4700"
    },
    {
      "division_id": "2",
      "district_id": "45",
      "upazila": "Coxs Bazar Sadar",
      "postOffice": "Eidga",
      "postCode": "4702"
    },
    {
      "division_id": "2",
      "district_id": "45",
      "upazila": "Coxs Bazar Sadar",
      "postOffice": "Zhilanja",
      "postCode": "4701"
    },
    {
      "division_id": "2",
      "district_id": "45",
      "upazila": "Gorakghat",
      "postOffice": "Gorakghat",
      "postCode": "4710"
    },
    {
      "division_id": "2",
      "district_id": "45",
      "upazila": "Kutubdia",
      "postOffice": "Kutubdia",
      "postCode": "4720"
    },
    {
      "division_id": "2",
      "district_id": "45",
      "upazila": "Ramu",
      "postOffice": "Ramu",
      "postCode": "4730"
    },
    {
      "division_id": "2",
      "district_id": "45",
      "upazila": "Teknaf",
      "postOffice": "Hnila",
      "postCode": "4761"
    },
    {
      "division_id": "2",
      "district_id": "45",
      "upazila": "Teknaf",
      "postOffice": "St.Martin",
      "postCode": "4762"
    },
    {
      "division_id": "2",
      "district_id": "45",
      "upazila": "Teknaf",
      "postOffice": "Teknaf",
      "postCode": "4760"
    },
    {
      "division_id": "2",
      "district_id": "45",
      "upazila": "Ukhia",
      "postOffice": "Ukhia",
      "postCode": "4750"
    },
    {
      "division_id": "2",
      "district_id": "46",
      "upazila": "Chhagalnaia",
      "postOffice": "Chhagalnaia",
      "postCode": "3910"
    },
    {
      "division_id": "2",
      "district_id": "46",
      "upazila": "Chhagalnaia",
      "postOffice": "Daraga Hat",
      "postCode": "3912"
    },
    {
      "division_id": "2",
      "district_id": "46",
      "upazila": "Chhagalnaia",
      "postOffice": "Maharajganj",
      "postCode": "3911"
    },
    {
      "division_id": "2",
      "district_id": "46",
      "upazila": "Chhagalnaia",
      "postOffice": "Puabashimulia",
      "postCode": "3913"
    },
    {
      "division_id": "2",
      "district_id": "46",
      "upazila": "Dagonbhuia",
      "postOffice": "Chhilonia",
      "postCode": "3922"
    },
    {
      "division_id": "2",
      "district_id": "46",
      "upazila": "Dagonbhuia",
      "postOffice": "Dagondhuia",
      "postCode": "3920"
    },
    {
      "division_id": "2",
      "district_id": "46",
      "upazila": "Dagonbhuia",
      "postOffice": "Dudmukha",
      "postCode": "3921"
    },
    {
      "division_id": "2",
      "district_id": "46",
      "upazila": "Dagonbhuia",
      "postOffice": "Rajapur",
      "postCode": "3923"
    },
    {
      "division_id": "2",
      "district_id": "46",
      "upazila": "Feni Sadar",
      "postOffice": "Fazilpur",
      "postCode": "3901"
    },
    {
      "division_id": "2",
      "district_id": "46",
      "upazila": "Feni Sadar",
      "postOffice": "Feni Sadar",
      "postCode": "3900"
    },
    {
      "division_id": "2",
      "district_id": "46",
      "upazila": "Feni Sadar",
      "postOffice": "Laskarhat",
      "postCode": "3903"
    },
    {
      "division_id": "2",
      "district_id": "46",
      "upazila": "Feni Sadar",
      "postOffice": "Sharshadie",
      "postCode": "3902"
    },
    {
      "division_id": "2",
      "district_id": "46",
      "upazila": "Pashurampur",
      "postOffice": "Fulgazi",
      "postCode": "3942"
    },
    {
      "division_id": "2",
      "district_id": "46",
      "upazila": "Pashurampur",
      "postOffice": "Munshirhat",
      "postCode": "3943"
    },
    {
      "division_id": "2",
      "district_id": "46",
      "upazila": "Pashurampur",
      "postOffice": "Pashurampur",
      "postCode": "3940"
    },
    {
      "division_id": "2",
      "district_id": "46",
      "upazila": "Pashurampur",
      "postOffice": "Shuarbazar",
      "postCode": "3941"
    },
    {
      "division_id": "2",
      "district_id": "46",
      "upazila": "Sonagazi",
      "postOffice": "Ahmadpur",
      "postCode": "3932"
    },
    {
      "division_id": "2",
      "district_id": "46",
      "upazila": "Sonagazi",
      "postOffice": "Kazirhat",
      "postCode": "3933"
    },
    {
      "division_id": "2",
      "district_id": "46",
      "upazila": "Sonagazi",
      "postOffice": "Motiganj",
      "postCode": "3931"
    },
    {
      "division_id": "2",
      "district_id": "46",
      "upazila": "Sonagazi",
      "postOffice": "Sonagazi",
      "postCode": "3930"
    },
    {
      "division_id": "2",
      "district_id": "47",
      "upazila": "Diginala",
      "postOffice": "Diginala",
      "postCode": "4420"
    },
    {
      "division_id": "2",
      "district_id": "47",
      "upazila": "Khagrachari Sadar",
      "postOffice": "Khagrachari Sadar",
      "postCode": "4400"
    },
    {
      "division_id": "2",
      "district_id": "47",
      "upazila": "Laxmichhari",
      "postOffice": "Laxmichhari",
      "postCode": "4470"
    },
    {
      "division_id": "2",
      "district_id": "47",
      "upazila": "Mahalchhari",
      "postOffice": "Mahalchhari",
      "postCode": "4430"
    },
    {
      "division_id": "2",
      "district_id": "47",
      "upazila": "Manikchhari",
      "postOffice": "Manikchhari",
      "postCode": "4460"
    },
    {
      "division_id": "2",
      "district_id": "47",
      "upazila": "Matiranga",
      "postOffice": "Matiranga",
      "postCode": "4450"
    },
    {
      "division_id": "2",
      "district_id": "47",
      "upazila": "Panchhari",
      "postOffice": "Panchhari",
      "postCode": "4410"
    },
    {
      "division_id": "2",
      "district_id": "47",
      "upazila": "Ramghar Head Office",
      "postOffice": "Ramghar Head Office",
      "postCode": "4440"
    },
    {
      "division_id": "2",
      "district_id": "48",
      "upazila": "Char Alexgander",
      "postOffice": "Char Alexgander",
      "postCode": "3730"
    },
    {
      "division_id": "2",
      "district_id": "48",
      "upazila": "Char Alexgander",
      "postOffice": "Hajirghat",
      "postCode": "3731"
    },
    {
      "division_id": "2",
      "district_id": "48",
      "upazila": "Char Alexgander",
      "postOffice": "Ramgatirhat",
      "postCode": "3732"
    },
    {
      "division_id": "2",
      "district_id": "48",
      "upazila": "Lakshimpur Sadar",
      "postOffice": "Amani Lakshimpur",
      "postCode": "3709"
    },
    {
      "division_id": "2",
      "district_id": "48",
      "upazila": "Lakshimpur Sadar",
      "postOffice": "Bhabaniganj",
      "postCode": "3702"
    },
    {
      "division_id": "2",
      "district_id": "48",
      "upazila": "Lakshimpur Sadar",
      "postOffice": "Chandraganj",
      "postCode": "3708"
    },
    {
      "division_id": "2",
      "district_id": "48",
      "upazila": "Lakshimpur Sadar",
      "postOffice": "Choupalli",
      "postCode": "3707"
    },
    {
      "division_id": "2",
      "district_id": "48",
      "upazila": "Lakshimpur Sadar",
      "postOffice": "Dalal Bazar",
      "postCode": "3701"
    },
    {
      "division_id": "2",
      "district_id": "48",
      "upazila": "Lakshimpur Sadar",
      "postOffice": "Duttapara",
      "postCode": "3706"
    },
    {
      "division_id": "2",
      "district_id": "48",
      "upazila": "Lakshimpur Sadar",
      "postOffice": "Keramatganj",
      "postCode": "3704"
    },
    {
      "division_id": "2",
      "district_id": "48",
      "upazila": "Lakshimpur Sadar",
      "postOffice": "Lakshimpur Sadar",
      "postCode": "3700"
    },
    {
      "division_id": "2",
      "district_id": "48",
      "upazila": "Lakshimpur Sadar",
      "postOffice": "Mandari",
      "postCode": "3703"
    },
    {
      "division_id": "2",
      "district_id": "48",
      "upazila": "Lakshimpur Sadar",
      "postOffice": "Rupchara",
      "postCode": "3705"
    },
    {
      "division_id": "2",
      "district_id": "48",
      "upazila": "Ramganj",
      "postOffice": "Alipur",
      "postCode": "3721"
    },
    {
      "division_id": "2",
      "district_id": "48",
      "upazila": "Ramganj",
      "postOffice": "Dolta",
      "postCode": "3725"
    },
    {
      "division_id": "2",
      "district_id": "48",
      "upazila": "Ramganj",
      "postOffice": "Kanchanpur",
      "postCode": "3723"
    },
    {
      "division_id": "2",
      "district_id": "48",
      "upazila": "Ramganj",
      "postOffice": "Naagmud",
      "postCode": "3724"
    },
    {
      "division_id": "2",
      "district_id": "48",
      "upazila": "Ramganj",
      "postOffice": "Panpara",
      "postCode": "3722"
    },
    {
      "division_id": "2",
      "district_id": "48",
      "upazila": "Ramganj",
      "postOffice": "Ramganj",
      "postCode": "3720"
    },
    {
      "division_id": "2",
      "district_id": "48",
      "upazila": "Raypur",
      "postOffice": "Bhuabari",
      "postCode": "3714"
    },
    {
      "division_id": "2",
      "district_id": "48",
      "upazila": "Raypur",
      "postOffice": "Haydarganj",
      "postCode": "3713"
    },
    {
      "division_id": "2",
      "district_id": "48",
      "upazila": "Raypur",
      "postOffice": "Nagerdighirpar",
      "postCode": "3712"
    },
    {
      "division_id": "2",
      "district_id": "48",
      "upazila": "Raypur",
      "postOffice": "Rakhallia",
      "postCode": "3711"
    },
    {
      "division_id": "2",
      "district_id": "48",
      "upazila": "Raypur",
      "postOffice": "Raypur",
      "postCode": "3710"
    },
    {
      "division_id": "2",
      "district_id": "49",
      "upazila": "Basurhat",
      "postOffice": "Basur Hat",
      "postCode": "3850"
    },
    {
      "division_id": "2",
      "district_id": "49",
      "upazila": "Basurhat",
      "postOffice": "Charhajari",
      "postCode": "3851"
    },
    {
      "division_id": "2",
      "district_id": "49",
      "upazila": "Begumganj",
      "postOffice": "Alaiarpur",
      "postCode": "3831"
    },
    {
      "division_id": "2",
      "district_id": "49",
      "upazila": "Begumganj",
      "postOffice": "Amisha Para",
      "postCode": "3847"
    },
    {
      "division_id": "2",
      "district_id": "49",
      "upazila": "Begumganj",
      "postOffice": "Banglabazar",
      "postCode": "3822"
    },
    {
      "division_id": "2",
      "district_id": "49",
      "upazila": "Begumganj",
      "postOffice": "Bazra",
      "postCode": "3824"
    },
    {
      "division_id": "2",
      "district_id": "49",
      "upazila": "Begumganj",
      "postOffice": "Begumganj",
      "postCode": "3820"
    },
    {
      "division_id": "2",
      "district_id": "49",
      "upazila": "Begumganj",
      "postOffice": "Bhabani Jibanpur",
      "postCode": "3837"
    },
    {
      "division_id": "2",
      "district_id": "49",
      "upazila": "Begumganj",
      "postOffice": "Choumohani",
      "postCode": "3821"
    },
    {
      "division_id": "2",
      "district_id": "49",
      "upazila": "Begumganj",
      "postOffice": "Dauti",
      "postCode": "3843"
    },
    {
      "division_id": "2",
      "district_id": "49",
      "upazila": "Begumganj",
      "postOffice": "Durgapur",
      "postCode": "3848"
    },
    {
      "division_id": "2",
      "district_id": "49",
      "upazila": "Begumganj",
      "postOffice": "Gopalpur",
      "postCode": "3828"
    },
    {
      "division_id": "2",
      "district_id": "49",
      "upazila": "Begumganj",
      "postOffice": "Jamidar Hat",
      "postCode": "3825"
    },
    {
      "division_id": "2",
      "district_id": "49",
      "upazila": "Begumganj",
      "postOffice": "Joyag",
      "postCode": "3844"
    },
    {
      "division_id": "2",
      "district_id": "49",
      "upazila": "Begumganj",
      "postOffice": "Joynarayanpur",
      "postCode": "3829"
    },
    {
      "division_id": "2",
      "district_id": "49",
      "upazila": "Begumganj",
      "postOffice": "Khalafat Bazar",
      "postCode": "3833"
    },
    {
      "division_id": "2",
      "district_id": "49",
      "upazila": "Begumganj",
      "postOffice": "Khalishpur",
      "postCode": "3842"
    },
    {
      "division_id": "2",
      "district_id": "49",
      "upazila": "Begumganj",
      "postOffice": "Maheshganj",
      "postCode": "3838"
    },
    {
      "division_id": "2",
      "district_id": "49",
      "upazila": "Begumganj",
      "postOffice": "Mir Owarishpur",
      "postCode": "3823"
    },
    {
      "division_id": "2",
      "district_id": "49",
      "upazila": "Begumganj",
      "postOffice": "Nadona",
      "postCode": "3839"
    },
    {
      "division_id": "2",
      "district_id": "49",
      "upazila": "Begumganj",
      "postOffice": "Nandiapara",
      "postCode": "3841"
    },
    {
      "division_id": "2",
      "district_id": "49",
      "upazila": "Begumganj",
      "postOffice": "Oachhekpur",
      "postCode": "3835"
    },
    {
      "division_id": "2",
      "district_id": "49",
      "upazila": "Begumganj",
      "postOffice": "Rajganj",
      "postCode": "3834"
    },
    {
      "division_id": "2",
      "district_id": "49",
      "upazila": "Begumganj",
      "postOffice": "Sonaimuri",
      "postCode": "3827"
    },
    {
      "division_id": "2",
      "district_id": "49",
      "upazila": "Begumganj",
      "postOffice": "Tangirpar",
      "postCode": "3832"
    },
    {
      "division_id": "2",
      "district_id": "49",
      "upazila": "Begumganj",
      "postOffice": "Thanar Hat",
      "postCode": "3845"
    },
    {
      "division_id": "2",
      "district_id": "49",
      "upazila": "Chatkhil",
      "postOffice": "Bansa Bazar",
      "postCode": "3879"
    },
    {
      "division_id": "2",
      "district_id": "49",
      "upazila": "Chatkhil",
      "postOffice": "Bodalcourt",
      "postCode": "3873"
    },
    {
      "division_id": "2",
      "district_id": "49",
      "upazila": "Chatkhil",
      "postOffice": "Chatkhil",
      "postCode": "3870"
    },
    {
      "division_id": "2",
      "district_id": "49",
      "upazila": "Chatkhil",
      "postOffice": "Dosh Gharia",
      "postCode": "3878"
    },
    {
      "division_id": "2",
      "district_id": "49",
      "upazila": "Chatkhil",
      "postOffice": "Karihati",
      "postCode": "3877"
    },
    {
      "division_id": "2",
      "district_id": "49",
      "upazila": "Chatkhil",
      "postOffice": "Khilpara",
      "postCode": "3872"
    },
    {
      "division_id": "2",
      "district_id": "49",
      "upazila": "Chatkhil",
      "postOffice": "Palla",
      "postCode": "3871"
    },
    {
      "division_id": "2",
      "district_id": "49",
      "upazila": "Chatkhil",
      "postOffice": "Rezzakpur",
      "postCode": "3874"
    },
    {
      "division_id": "2",
      "district_id": "49",
      "upazila": "Chatkhil",
      "postOffice": "Sahapur",
      "postCode": "3881"
    },
    {
      "division_id": "2",
      "district_id": "49",
      "upazila": "Chatkhil",
      "postOffice": "Sampara",
      "postCode": "3882"
    },
    {
      "division_id": "2",
      "district_id": "49",
      "upazila": "Chatkhil",
      "postOffice": "Shingbahura",
      "postCode": "3883"
    },
    {
      "division_id": "2",
      "district_id": "49",
      "upazila": "Chatkhil",
      "postOffice": "Solla",
      "postCode": "3875"
    },
    {
      "division_id": "2",
      "district_id": "49",
      "upazila": "Hatiya",
      "postOffice": "Afazia",
      "postCode": "3891"
    },
    {
      "division_id": "2",
      "district_id": "49",
      "upazila": "Hatiya",
      "postOffice": "Hatiya",
      "postCode": "3890"
    },
    {
      "division_id": "2",
      "district_id": "49",
      "upazila": "Hatiya",
      "postOffice": "Tamoraddi",
      "postCode": "3892"
    },
    {
      "division_id": "2",
      "district_id": "49",
      "upazila": "Noakhali Sadar",
      "postOffice": "Chaprashir Hat",
      "postCode": "3811"
    },
    {
      "division_id": "2",
      "district_id": "49",
      "upazila": "Noakhali Sadar",
      "postOffice": "Char Jabbar",
      "postCode": "3812"
    },
    {
      "division_id": "2",
      "district_id": "49",
      "upazila": "Noakhali Sadar",
      "postOffice": "Charam Tua",
      "postCode": "3809"
    },
    {
      "division_id": "2",
      "district_id": "49",
      "upazila": "Noakhali Sadar",
      "postOffice": "Din Monir Hat",
      "postCode": "3803"
    },
    {
      "division_id": "2",
      "district_id": "49",
      "upazila": "Noakhali Sadar",
      "postOffice": "Kabirhat",
      "postCode": "3807"
    },
    {
      "division_id": "2",
      "district_id": "49",
      "upazila": "Noakhali Sadar",
      "postOffice": "Khalifar Hat",
      "postCode": "3808"
    },
    {
      "division_id": "2",
      "district_id": "49",
      "upazila": "Noakhali Sadar",
      "postOffice": "Mriddarhat",
      "postCode": "3806"
    },
    {
      "division_id": "2",
      "district_id": "49",
      "upazila": "Noakhali Sadar",
      "postOffice": "Noakhali College",
      "postCode": "3801"
    },
    {
      "division_id": "2",
      "district_id": "49",
      "upazila": "Noakhali Sadar",
      "postOffice": "Noakhali Sadar",
      "postCode": "3800"
    },
    {
      "division_id": "2",
      "district_id": "49",
      "upazila": "Noakhali Sadar",
      "postOffice": "Pak Kishoreganj",
      "postCode": "3804"
    },
    {
      "division_id": "2",
      "district_id": "49",
      "upazila": "Noakhali Sadar",
      "postOffice": "Sonapur",
      "postCode": "3802"
    },
    {
      "division_id": "2",
      "district_id": "49",
      "upazila": "Senbag",
      "postOffice": "Beezbag",
      "postCode": "3862"
    },
    {
      "division_id": "2",
      "district_id": "49",
      "upazila": "Senbag",
      "postOffice": "Chatarpaia",
      "postCode": "3864"
    },
    {
      "division_id": "2",
      "district_id": "49",
      "upazila": "Senbag",
      "postOffice": "Kallyandi",
      "postCode": "3861"
    },
    {
      "division_id": "2",
      "district_id": "49",
      "upazila": "Senbag",
      "postOffice": "Kankirhat",
      "postCode": "3863"
    },
    {
      "division_id": "2",
      "district_id": "49",
      "upazila": "Senbag",
      "postOffice": "Senbag",
      "postCode": "3860"
    },
    {
      "division_id": "2",
      "district_id": "49",
      "upazila": "Senbag",
      "postOffice": "T.P. Lamua",
      "postCode": "3865"
    },
    {
      "division_id": "2",
      "district_id": "50",
      "upazila": "Barakal",
      "postOffice": "Barakal",
      "postCode": "4570"
    },
    {
      "division_id": "2",
      "district_id": "50",
      "upazila": "Bilaichhari",
      "postOffice": "Bilaichhari",
      "postCode": "4550"
    },
    {
      "division_id": "2",
      "district_id": "50",
      "upazila": "Jarachhari",
      "postOffice": "Jarachhari",
      "postCode": "4560"
    },
    {
      "division_id": "2",
      "district_id": "50",
      "upazila": "Kalampati",
      "postOffice": "Betbunia",
      "postCode": "4511"
    },
    {
      "division_id": "2",
      "district_id": "50",
      "upazila": "Kalampati",
      "postOffice": "Kalampati",
      "postCode": "4510"
    },
    {
      "division_id": "2",
      "district_id": "50",
      "upazila": "kaptai",
      "postOffice": "Chandraghona",
      "postCode": "4531"
    },
    {
      "division_id": "2",
      "district_id": "50",
      "upazila": "kaptai",
      "postOffice": "Kaptai",
      "postCode": "4530"
    },
    {
      "division_id": "2",
      "district_id": "50",
      "upazila": "kaptai",
      "postOffice": "Kaptai Nuton Bazar",
      "postCode": "4533"
    },
    {
      "division_id": "2",
      "district_id": "50",
      "upazila": "kaptai",
      "postOffice": "Kaptai Project",
      "postCode": "4532"
    },
    {
      "division_id": "2",
      "district_id": "50",
      "upazila": "Longachh",
      "postOffice": "Longachh",
      "postCode": "4580"
    },
    {
      "division_id": "2",
      "district_id": "50",
      "upazila": "Marishya",
      "postOffice": "Marishya",
      "postCode": "4590"
    },
    {
      "division_id": "2",
      "district_id": "50",
      "upazila": "Naniachhar",
      "postOffice": "Nanichhar",
      "postCode": "4520"
    },
    {
      "division_id": "2",
      "district_id": "50",
      "upazila": "Rajsthali",
      "postOffice": "Rajsthali",
      "postCode": "4540"
    },
    {
      "division_id": "2",
      "district_id": "50",
      "upazila": "Rangamati Sadar",
      "postOffice": "Rangamati Sadar",
      "postCode": "4500"
    }
  ]
}