{
  "postcodes": [
    {
      "division_id": "4",
      "district_id": "55",
      "upazila": "Bagerhat Sadar",
      "postOffice": "Bagerhat Sadar",
      "postCode": "9300"
    },
    {
      "division_id": "4",
      "district_id": "55",
      "upazila": "Bagerhat Sadar",
      "postOffice": "P.C College",
      "postCode": "9301"
    },
    {
      "division_id": "4",
      "district_id": "55",
      "upazila": "Bagerhat Sadar",
      "postOffice": "Rangdia",
      "postCode": "9302"
    },
    {
      "division_id": "4",
      "district_id": "55",
      "upazila": "Chalna Ankorage",
      "postOffice": "Chalna Ankorage",
      "postCode": "9350"
    },
    {
      "division_id": "4",
      "district_id": "55",
      "upazila": "Chalna Ankorage",
      "postOffice": "Mongla Port",
      "postCode": "9351"
    },
    {
      "division_id": "4",
      "district_id": "55",
      "upazila": "Chitalmari",
      "postOffice": "Barabaria",
      "postCode": "9361"
    },
    {
      "division_id": "4",
      "district_id": "55",
      "upazila": "Chitalmari",
      "postOffice": "Chitalmari",
      "postCode": "9360"
    },
    {
      "division_id": "4",
      "district_id": "55",
      "upazila": "Fakirhat",
      "postOffice": "Bhanganpar Bazar",
      "postCode": "9372"
    },
    {
      "division_id": "4",
      "district_id": "55",
      "upazila": "Fakirhat",
      "postOffice": "Fakirhat",
      "postCode": "9370"
    },
    {
      "division_id": "4",
      "district_id": "55",
      "upazila": "Fakirhat",
      "postOffice": "Mansa",
      "postCode": "9371"
    },
    {
      "division_id": "4",
      "district_id": "55",
      "upazila": "Kachua UPO",
      "postOffice": "Kachua",
      "postCode": "9310"
    },
    {
      "division_id": "4",
      "district_id": "55",
      "upazila": "Kachua UPO",
      "postOffice": "Sonarkola",
      "postCode": "9311"
    },
    {
      "division_id": "4",
      "district_id": "55",
      "upazila": "Mollahat",
      "postOffice": "Charkulia",
      "postCode": "9383"
    },
    {
      "division_id": "4",
      "district_id": "55",
      "upazila": "Mollahat",
      "postOffice": "Dariala",
      "postCode": "9382"
    },
    {
      "division_id": "4",
      "district_id": "55",
      "upazila": "Mollahat",
      "postOffice": "Kahalpur",
      "postCode": "9381"
    },
    {
      "division_id": "4",
      "district_id": "55",
      "upazila": "Mollahat",
      "postOffice": "Mollahat",
      "postCode": "9380"
    },
    {
      "division_id": "4",
      "district_id": "55",
      "upazila": "Mollahat",
      "postOffice": "Nagarkandi",
      "postCode": "9384"
    },
    {
      "division_id": "4",
      "district_id": "55",
      "upazila": "Mollahat",
      "postOffice": "Pak Gangni",
      "postCode": "9385"
    },
    {
      "division_id": "4",
      "district_id": "55",
      "upazila": "Morelganj",
      "postOffice": "Morelganj",
      "postCode": "9320"
    },
    {
      "division_id": "4",
      "district_id": "55",
      "upazila": "Morelganj",
      "postOffice": "Sannasi Bazar",
      "postCode": "9321"
    },
    {
      "division_id": "4",
      "district_id": "55",
      "upazila": "Morelganj",
      "postOffice": "Telisatee",
      "postCode": "9322"
    },
    {
      "division_id": "4",
      "district_id": "55",
      "upazila": "Rampal",
      "postOffice": "Foylahat",
      "postCode": "9341"
    },
    {
      "division_id": "4",
      "district_id": "55",
      "upazila": "Rampal",
      "postOffice": "Gourambha",
      "postCode": "9343"
    },
    {
      "division_id": "4",
      "district_id": "55",
      "upazila": "Rampal",
      "postOffice": "Rampal",
      "postCode": "9340"
    },
    {
      "division_id": "4",
      "district_id": "55",
      "upazila": "Rampal",
      "postOffice": "Sonatunia",
      "postCode": "9342"
    },
    {
      "division_id": "4",
      "district_id": "55",
      "upazila": "Rayenda",
      "postOffice": "Rayenda",
      "postCode": "9330"
    },
    {
      "division_id": "4",
      "district_id": "56",
      "upazila": "Alamdanga",
      "postOffice": "Alamdanga",
      "postCode": "7210"
    },
    {
      "division_id": "4",
      "district_id": "56",
      "upazila": "Alamdanga",
      "postOffice": "Hardi",
      "postCode": "7211"
    },
    {
      "division_id": "4",
      "district_id": "56",
      "upazila": "Chuadanga Sadar",
      "postOffice": "Chuadanga Sadar",
      "postCode": "7200"
    },
    {
      "division_id": "4",
      "district_id": "56",
      "upazila": "Chuadanga Sadar",
      "postOffice": "Munshiganj",
      "postCode": "7201"
    },
    {
      "division_id": "4",
      "district_id": "56",
      "upazila": "Damurhuda",
      "postOffice": "Andulbaria",
      "postCode": "7222"
    },
    {
      "division_id": "4",
      "district_id": "56",
      "upazila": "Damurhuda",
      "postOffice": "Damurhuda",
      "postCode": "7220"
    },
    {
      "division_id": "4",
      "district_id": "56",
      "upazila": "Damurhuda",
      "postOffice": "Darshana",
      "postCode": "7221"
    },
    {
      "division_id": "4",
      "district_id": "56",
      "upazila": "Doulatganj",
      "postOffice": "Doulatganj",
      "postCode": "7230"
    },
    {
      "division_id": "4",
      "district_id": "57",
      "upazila": "Bagharpara",
      "postOffice": "Bagharpara",
      "postCode": "7470"
    },
    {
      "division_id": "4",
      "district_id": "57",
      "upazila": "Bagharpara",
      "postOffice": "Gouranagar",
      "postCode": "7471"
    },
    {
      "division_id": "4",
      "district_id": "57",
      "upazila": "Chaugachha",
      "postOffice": "Chougachha",
      "postCode": "7410"
    },
    {
      "division_id": "4",
      "district_id": "57",
      "upazila": "Jessore Sadar",
      "postOffice": "Basundia",
      "postCode": "7406"
    },
    {
      "division_id": "4",
      "district_id": "57",
      "upazila": "Jessore Sadar",
      "postOffice": "Chanchra",
      "postCode": "7402"
    },
    {
      "division_id": "4",
      "district_id": "57",
      "upazila": "Jessore Sadar",
      "postOffice": "Churamankathi",
      "postCode": "7407"
    },
    {
      "division_id": "4",
      "district_id": "57",
      "upazila": "Jessore Sadar",
      "postOffice": "Jessore Airbach",
      "postCode": "7404"
    },
    {
      "division_id": "4",
      "district_id": "57",
      "upazila": "Jessore Sadar",
      "postOffice": "Jessore canttonment",
      "postCode": "7403"
    },
    {
      "division_id": "4",
      "district_id": "57",
      "upazila": "Jessore Sadar",
      "postOffice": "Jessore Sadar",
      "postCode": "7400"
    },
    {
      "division_id": "4",
      "district_id": "57",
      "upazila": "Jessore Sadar",
      "postOffice": "Jessore Upa-Shahar",
      "postCode": "7401"
    },
    {
      "division_id": "4",
      "district_id": "57",
      "upazila": "Jessore Sadar",
      "postOffice": "Rupdia",
      "postCode": "7405"
    },
    {
      "division_id": "4",
      "district_id": "57",
      "upazila": "Jhikargachha",
      "postOffice": "Jhikargachha",
      "postCode": "7420"
    },
    {
      "division_id": "4",
      "district_id": "57",
      "upazila": "Keshabpur",
      "postOffice": "Keshobpur",
      "postCode": "7450"
    },
    {
      "division_id": "4",
      "district_id": "57",
      "upazila": "Monirampur",
      "postOffice": "Monirampur",
      "postCode": "7440"
    },
    {
      "division_id": "4",
      "district_id": "57",
      "upazila": "Noapara",
      "postOffice": "Bhugilhat",
      "postCode": "7462"
    },
    {
      "division_id": "4",
      "district_id": "57",
      "upazila": "Noapara",
      "postOffice": "Noapara",
      "postCode": "7460"
    },
    {
      "division_id": "4",
      "district_id": "57",
      "upazila": "Noapara",
      "postOffice": "Rajghat",
      "postCode": "7461"
    },
    {
      "division_id": "4",
      "district_id": "57",
      "upazila": "Sarsa",
      "postOffice": "Bag Achra",
      "postCode": "7433"
    },
    {
      "division_id": "4",
      "district_id": "57",
      "upazila": "Sarsa",
      "postOffice": "Benapole",
      "postCode": "7431"
    },
    {
      "division_id": "4",
      "district_id": "57",
      "upazila": "Sarsa",
      "postOffice": "Jadabpur",
      "postCode": "7432"
    },
    {
      "division_id": "4",
      "district_id": "57",
      "upazila": "Sarsa",
      "postOffice": "Sarsa",
      "postCode": "7430"
    },
    {
      "division_id": "4",
      "district_id": "58",
      "upazila": "Harinakundu",
      "postOffice": "Harinakundu",
      "postCode": "7310"
    },
    {
      "division_id": "4",
      "district_id": "58",
      "upazila": "Jinaidaha Sadar",
      "postOffice": "Jinaidaha Cadet College",
      "postCode": "7301"
    },
    {
      "division_id": "4",
      "district_id": "58",
      "upazila": "Jinaidaha Sadar",
      "postOffice": "Jinaidaha Sadar",
      "postCode": "7300"
    },
    {
      "division_id": "4",
      "district_id": "58",
      "upazila": "Kotchandpur",
      "postOffice": "Kotchandpur",
      "postCode": "7330"
    },
    {
      "division_id": "4",
      "district_id": "58",
      "upazila": "Maheshpur",
      "postOffice": "Maheshpur",
      "postCode": "7340"
    },
    {
      "division_id": "4",
      "district_id": "58",
      "upazila": "Naldanga",
      "postOffice": "Hatbar Bazar",
      "postCode": "7351"
    },
    {
      "division_id": "4",
      "district_id": "58",
      "upazila": "Naldanga",
      "postOffice": "Naldanga",
      "postCode": "7350"
    },
    {
      "division_id": "4",
      "district_id": "58",
      "upazila": "Shailakupa",
      "postOffice": "Kumiradaha",
      "postCode": "7321"
    },
    {
      "division_id": "4",
      "district_id": "58",
      "upazila": "Shailakupa",
      "postOffice": "Shailakupa",
      "postCode": "7320"
    },
    {
      "division_id": "4",
      "district_id": "59",
      "upazila": "Alaipur",
      "postOffice": "Alaipur",
      "postCode": "9240"
    },
    {
      "division_id": "4",
      "district_id": "59",
      "upazila": "Alaipur",
      "postOffice": "Belphulia",
      "postCode": "9242"
    },
    {
      "division_id": "4",
      "district_id": "59",
      "upazila": "Alaipur",
      "postOffice": "Rupsha",
      "postCode": "9241"
    },
    {
      "division_id": "4",
      "district_id": "59",
      "upazila": "Batiaghat",
      "postOffice": "Batiaghat",
      "postCode": "9260"
    },
    {
      "division_id": "4",
      "district_id": "59",
      "upazila": "Batiaghat",
      "postOffice": "Surkalee",
      "postCode": "9261"
    },
    {
      "division_id": "4",
      "district_id": "59",
      "upazila": "Chalna Bazar",
      "postOffice": "Bajua",
      "postCode": "9272"
    },
    {
      "division_id": "4",
      "district_id": "59",
      "upazila": "Chalna Bazar",
      "postOffice": "Chalna Bazar",
      "postCode": "9270"
    },
    {
      "division_id": "4",
      "district_id": "59",
      "upazila": "Chalna Bazar",
      "postOffice": "Dakup",
      "postCode": "9271"
    },
    {
      "division_id": "4",
      "district_id": "59",
      "upazila": "Chalna Bazar",
      "postOffice": "Nalian",
      "postCode": "9273"
    },
    {
      "division_id": "4",
      "district_id": "59",
      "upazila": "Digalia",
      "postOffice": "Chandni Mahal",
      "postCode": "9221"
    },
    {
      "division_id": "4",
      "district_id": "59",
      "upazila": "Digalia",
      "postOffice": "Digalia",
      "postCode": "9220"
    },
    {
      "division_id": "4",
      "district_id": "59",
      "upazila": "Digalia",
      "postOffice": "Gazirhat",
      "postCode": "9224"
    },
    {
      "division_id": "4",
      "district_id": "59",
      "upazila": "Digalia",
      "postOffice": "Ghoshghati",
      "postCode": "9223"
    },
    {
      "division_id": "4",
      "district_id": "59",
      "upazila": "Digalia",
      "postOffice": "Senhati",
      "postCode": "9222"
    },
    {
      "division_id": "4",
      "district_id": "59",
      "upazila": "Khulna Sadar",
      "postOffice": "Atra Shilpa Area",
      "postCode": "9207"
    },
    {
      "division_id": "4",
      "district_id": "59",
      "upazila": "Khulna Sadar",
      "postOffice": "BIT Khulna",
      "postCode": "9203"
    },
    {
      "division_id": "4",
      "district_id": "59",
      "upazila": "Khulna Sadar",
      "postOffice": "Doulatpur",
      "postCode": "9202"
    },
    {
      "division_id": "4",
      "district_id": "59",
      "upazila": "Khulna Sadar",
      "postOffice": "Jahanabad Canttonmen",
      "postCode": "9205"
    },
    {
      "division_id": "4",
      "district_id": "59",
      "upazila": "Khulna Sadar",
      "postOffice": "Khula Sadar",
      "postCode": "9100"
    },
    {
      "division_id": "4",
      "district_id": "59",
      "upazila": "Khulna Sadar",
      "postOffice": "Khulna G.P.O",
      "postCode": "9000"
    },
    {
      "division_id": "4",
      "district_id": "59",
      "upazila": "Khulna Sadar",
      "postOffice": "Khulna Shipyard",
      "postCode": "9201"
    },
    {
      "division_id": "4",
      "district_id": "59",
      "upazila": "Khulna Sadar",
      "postOffice": "Khulna University",
      "postCode": "9208"
    },
    {
      "division_id": "4",
      "district_id": "59",
      "upazila": "Khulna Sadar",
      "postOffice": "Siramani",
      "postCode": "9204"
    },
    {
      "division_id": "4",
      "district_id": "59",
      "upazila": "Khulna Sadar",
      "postOffice": "Sonali Jute Mills",
      "postCode": "9206"
    },
    {
      "division_id": "4",
      "district_id": "59",
      "upazila": "Madinabad",
      "postOffice": "Amadee",
      "postCode": "9291"
    },
    {
      "division_id": "4",
      "district_id": "59",
      "upazila": "Madinabad",
      "postOffice": "Madinabad",
      "postCode": "9290"
    },
    {
      "division_id": "4",
      "district_id": "59",
      "upazila": "Paikgachha",
      "postOffice": "Chandkhali",
      "postCode": "9284"
    },
    {
      "division_id": "4",
      "district_id": "59",
      "upazila": "Paikgachha",
      "postOffice": "Garaikhali",
      "postCode": "9285"
    },
    {
      "division_id": "4",
      "district_id": "59",
      "upazila": "Paikgachha",
      "postOffice": "Godaipur",
      "postCode": "9281"
    },
    {
      "division_id": "4",
      "district_id": "59",
      "upazila": "Paikgachha",
      "postOffice": "Kapilmoni",
      "postCode": "9282"
    },
    {
      "division_id": "4",
      "district_id": "59",
      "upazila": "Paikgachha",
      "postOffice": "Katipara",
      "postCode": "9283"
    },
    {
      "division_id": "4",
      "district_id": "59",
      "upazila": "Paikgachha",
      "postOffice": "Paikgachha",
      "postCode": "9280"
    },
    {
      "division_id": "4",
      "district_id": "59",
      "upazila": "Phultala",
      "postOffice": "Phultala",
      "postCode": "9210"
    },
    {
      "division_id": "4",
      "district_id": "59",
      "upazila": "Sajiara",
      "postOffice": "Chuknagar",
      "postCode": "9252"
    },
    {
      "division_id": "4",
      "district_id": "59",
      "upazila": "Sajiara",
      "postOffice": "Ghonabanda",
      "postCode": "9251"
    },
    {
      "division_id": "4",
      "district_id": "59",
      "upazila": "Sajiara",
      "postOffice": "Sajiara",
      "postCode": "9250"
    },
    {
      "division_id": "4",
      "district_id": "59",
      "upazila": "Sajiara",
      "postOffice": "Shahapur",
      "postCode": "9253"
    },
    {
      "division_id": "4",
      "district_id": "59",
      "upazila": "Terakhada",
      "postOffice": "Pak Barasat",
      "postCode": "9231"
    },
    {
      "division_id": "4",
      "district_id": "59",
      "upazila": "Terakhada",
      "postOffice": "Terakhada",
      "postCode": "9230"
    },
    {
      "division_id": "4",
      "district_id": "60",
      "upazila": "Bheramara",
      "postOffice": "Allardarga",
      "postCode": "7042"
    },
    {
      "division_id": "4",
      "district_id": "60",
      "upazila": "Bheramara",
      "postOffice": "Bheramara",
      "postCode": "7040"
    },
    {
      "division_id": "4",
      "district_id": "60",
      "upazila": "Bheramara",
      "postOffice": "Ganges Bheramara",
      "postCode": "7041"
    },
    {
      "division_id": "4",
      "district_id": "60",
      "upazila": "Janipur",
      "postOffice": "Janipur",
      "postCode": "7020"
    },
    {
      "division_id": "4",
      "district_id": "60",
      "upazila": "Janipur",
      "postOffice": "Khoksa",
      "postCode": "7021"
    },
    {
      "division_id": "4",
      "district_id": "60",
      "upazila": "Kumarkhali",
      "postOffice": "Kumarkhali",
      "postCode": "7010"
    },
    {
      "division_id": "4",
      "district_id": "60",
      "upazila": "Kumarkhali",
      "postOffice": "Panti",
      "postCode": "7011"
    },
    {
      "division_id": "4",
      "district_id": "60",
      "upazila": "Kustia Sadar",
      "postOffice": "Islami University",
      "postCode": "7003"
    },
    {
      "division_id": "4",
      "district_id": "60",
      "upazila": "Kustia Sadar",
      "postOffice": "Jagati",
      "postCode": "7002"
    },
    {
      "division_id": "4",
      "district_id": "60",
      "upazila": "Kustia Sadar",
      "postOffice": "Kushtia Mohini",
      "postCode": "7001"
    },
    {
      "division_id": "4",
      "district_id": "60",
      "upazila": "Kustia Sadar",
      "postOffice": "Kustia Sadar",
      "postCode": "7000"
    },
    {
      "division_id": "4",
      "district_id": "60",
      "upazila": "Mirpur",
      "postOffice": "Amla Sadarpur",
      "postCode": "7032"
    },
    {
      "division_id": "4",
      "district_id": "60",
      "upazila": "Mirpur",
      "postOffice": "Mirpur",
      "postCode": "7030"
    },
    {
      "division_id": "4",
      "district_id": "60",
      "upazila": "Mirpur",
      "postOffice": "Poradaha",
      "postCode": "7031"
    },
    {
      "division_id": "4",
      "district_id": "60",
      "upazila": "Rafayetpur",
      "postOffice": "Khasmathurapur",
      "postCode": "7052"
    },
    {
      "division_id": "4",
      "district_id": "60",
      "upazila": "Rafayetpur",
      "postOffice": "Rafayetpur",
      "postCode": "7050"
    },
    {
      "division_id": "4",
      "district_id": "60",
      "upazila": "Rafayetpur",
      "postOffice": "Taragunia",
      "postCode": "7051"
    },
    {
      "division_id": "4",
      "district_id": "61",
      "upazila": "Arpara",
      "postOffice": "Arpara",
      "postCode": "7620"
    },
    {
      "division_id": "4",
      "district_id": "61",
      "upazila": "Magura Sadar",
      "postOffice": "Magura Sadar",
      "postCode": "7600"
    },
    {
      "division_id": "4",
      "district_id": "61",
      "upazila": "Mohammadpur",
      "postOffice": "Binodpur",
      "postCode": "7631"
    },
    {
      "division_id": "4",
      "district_id": "61",
      "upazila": "Mohammadpur",
      "postOffice": "Mohammadpur",
      "postCode": "7630"
    },
    {
      "division_id": "4",
      "district_id": "61",
      "upazila": "Mohammadpur",
      "postOffice": "Nahata",
      "postCode": "7632"
    },
    {
      "division_id": "4",
      "district_id": "61",
      "upazila": "Shripur",
      "postOffice": "Langalbadh",
      "postCode": "7611"
    },
    {
      "division_id": "4",
      "district_id": "61",
      "upazila": "Shripur",
      "postOffice": "Nachol",
      "postCode": "7612"
    },
    {
      "division_id": "4",
      "district_id": "61",
      "upazila": "Shripur",
      "postOffice": "Shripur",
      "postCode": "7610"
    },
    {
      "division_id": "4",
      "district_id": "62",
      "upazila": "Gangni",
      "postOffice": "Gangni",
      "postCode": "7110"
    },
    {
      "division_id": "4",
      "district_id": "62",
      "upazila": "Meherpur Sadar",
      "postOffice": "Amjhupi",
      "postCode": "7101"
    },
    {
      "division_id": "4",
      "district_id": "62",
      "upazila": "Meherpur Sadar",
      "postOffice": "Amjhupi",
      "postCode": "7152"
    },
    {
      "division_id": "4",
      "district_id": "62",
      "upazila": "Meherpur Sadar",
      "postOffice": "Meherpur Sadar",
      "postCode": "7100"
    },
    {
      "division_id": "4",
      "district_id": "62",
      "upazila": "Meherpur Sadar",
      "postOffice": "Mujib Nagar Complex",
      "postCode": "7102"
    },
    {
      "division_id": "4",
      "district_id": "63",
      "upazila": "Kalia",
      "postOffice": "Kalia",
      "postCode": "7520"
    },
    {
      "division_id": "4",
      "district_id": "63",
      "upazila": "Laxmipasha",
      "postOffice": "Baradia",
      "postCode": "7514"
    },
    {
      "division_id": "4",
      "district_id": "63",
      "upazila": "Laxmipasha",
      "postOffice": "Itna",
      "postCode": "7512"
    },
    {
      "division_id": "4",
      "district_id": "63",
      "upazila": "Laxmipasha",
      "postOffice": "Laxmipasha",
      "postCode": "7510"
    },
    {
      "division_id": "4",
      "district_id": "63",
      "upazila": "Laxmipasha",
      "postOffice": "Lohagora",
      "postCode": "7511"
    },
    {
      "division_id": "4",
      "district_id": "63",
      "upazila": "Laxmipasha",
      "postOffice": "Naldi",
      "postCode": "7513"
    },
    {
      "division_id": "4",
      "district_id": "63",
      "upazila": "Mohajan",
      "postOffice": "Mohajan",
      "postCode": "7521"
    },
    {
      "division_id": "4",
      "district_id": "63",
      "upazila": "Narail Sadar",
      "postOffice": "Narail Sadar",
      "postCode": "7500"
    },
    {
      "division_id": "4",
      "district_id": "63",
      "upazila": "Narail Sadar",
      "postOffice": "Ratanganj",
      "postCode": "7501"
    },
    {
      "division_id": "4",
      "district_id": "64",
      "upazila": "Ashashuni",
      "postOffice": "Ashashuni",
      "postCode": "9460"
    },
    {
      "division_id": "4",
      "district_id": "64",
      "upazila": "Ashashuni",
      "postOffice": "Baradal",
      "postCode": "9461"
    },
    {
      "division_id": "4",
      "district_id": "64",
      "upazila": "Debbhata",
      "postOffice": "Debbhata",
      "postCode": "9430"
    },
    {
      "division_id": "4",
      "district_id": "64",
      "upazila": "Debbhata",
      "postOffice": "Gurugram",
      "postCode": "9431"
    },
    {
      "division_id": "4",
      "district_id": "64",
      "upazila": "kalaroa",
      "postOffice": "Chandanpur",
      "postCode": "9415"
    },
    {
      "division_id": "4",
      "district_id": "64",
      "upazila": "kalaroa",
      "postOffice": "Hamidpur",
      "postCode": "9413"
    },
    {
      "division_id": "4",
      "district_id": "64",
      "upazila": "kalaroa",
      "postOffice": "Jhaudanga",
      "postCode": "9412"
    },
    {
      "division_id": "4",
      "district_id": "64",
      "upazila": "kalaroa",
      "postOffice": "kalaroa",
      "postCode": "9410"
    },
    {
      "division_id": "4",
      "district_id": "64",
      "upazila": "kalaroa",
      "postOffice": "Khordo",
      "postCode": "9414"
    },
    {
      "division_id": "4",
      "district_id": "64",
      "upazila": "kalaroa",
      "postOffice": "Murarikati",
      "postCode": "9411"
    },
    {
      "division_id": "4",
      "district_id": "64",
      "upazila": "Kaliganj UPO",
      "postOffice": "Kaliganj UPO",
      "postCode": "9440"
    },
    {
      "division_id": "4",
      "district_id": "64",
      "upazila": "Kaliganj UPO",
      "postOffice": "Nalta Mubaroknagar",
      "postCode": "9441"
    },
    {
      "division_id": "4",
      "district_id": "64",
      "upazila": "Kaliganj UPO",
      "postOffice": "Ratanpur",
      "postCode": "9442"
    },
    {
      "division_id": "4",
      "district_id": "64",
      "upazila": "Nakipur",
      "postOffice": "Buri Goalini",
      "postCode": "9453"
    },
    {
      "division_id": "4",
      "district_id": "64",
      "upazila": "Nakipur",
      "postOffice": "Gabura",
      "postCode": "9454"
    },
    {
      "division_id": "4",
      "district_id": "64",
      "upazila": "Nakipur",
      "postOffice": "Habinagar",
      "postCode": "9455"
    },
    {
      "division_id": "4",
      "district_id": "64",
      "upazila": "Nakipur",
      "postOffice": "Nakipur",
      "postCode": "9450"
    },
    {
      "division_id": "4",
      "district_id": "64",
      "upazila": "Nakipur",
      "postOffice": "Naobeki",
      "postCode": "9452"
    },
    {
      "division_id": "4",
      "district_id": "64",
      "upazila": "Nakipur",
      "postOffice": "Noornagar",
      "postCode": "9451"
    },
    {
      "division_id": "4",
      "district_id": "64",
      "upazila": "Satkhira Sadar",
      "postOffice": "Budhhat",
      "postCode": "9403"
    },
    {
      "division_id": "4",
      "district_id": "64",
      "upazila": "Satkhira Sadar",
      "postOffice": "Gunakar kati",
      "postCode": "9402"
    },
    {
      "division_id": "4",
      "district_id": "64",
      "upazila": "Satkhira Sadar",
      "postOffice": "Satkhira Islamia Acc",
      "postCode": "9401"
    },
    {
      "division_id": "4",
      "district_id": "64",
      "upazila": "Satkhira Sadar",
      "postOffice": "Satkhira Sadar",
      "postCode": "9400"
    },
    {
      "division_id": "4",
      "district_id": "64",
      "upazila": "Taala",
      "postOffice": "Patkelghata",
      "postCode": "9421"
    },
    {
      "division_id": "4",
      "district_id": "64",
      "upazila": "Taala",
      "postOffice": "Taala",
      "postCode": "9420"
    }
  ]
}