[
  {
    "id": "40",
    "division_id": "2",
    "name": "Bandarban",
    "bn_name": "বান্দরবান",
    "lat": "22.1953275",
    "long": "92.2183773"
  },
  {
    "id": "41",
    "division_id": "2",
    "name": "Brahmanbaria",
    "bn_name": "ব্রাহ্মণবাড়িয়া",
    "lat": "23.9570904",
    "long": "91.1119286"
  },
  {
    "id": "42",
    "division_id": "2",
    "name": "Chandpur",
    "bn_name": "চাঁদপুর",
    "lat": "23.2332585",
    "long": "90.6712912"
  },
  {
    "id": "43",
    "division_id": "2",
    "name": "Chattogram",
    "bn_name": "চট্টগ্রাম",
    "lat": "22.335109",
    "long": "91.834073"
  },
  {
    "id": "44",
    "division_id": "2",
    "name": "Cumilla",
    "bn_name": "কুমিল্লা",
    "lat": "23.4682747",
    "long": "91.1788135"
  },
  {
    "id": "45",
    "division_id": "2",
    "name": "Cox's Bazar",
    "bn_name": "কক্স বাজার",
    "lat": "21.4272",
    "long": "92.0058"
  },
  {
    "id": "46",
    "division_id": "2",
    "name": "Feni",
    "bn_name": "ফেনী",
    "lat": "23.0159",
    "long": "91.3976"
  },
  {
    "id": "47",
    "division_id": "2",
    "name": "Khagrachari",
    "bn_name": "খাগড়াছড়ি",
    "lat": "23.119285",
    "long": "91.984663"
  },
  {
    "id": "48",
    "division_id": "2",
    "name": "Lakshmipur",
    "bn_name": "লক্ষ্মীপুর",
    "lat": "22.942477",
    "long": "90.841184"
  },
  {
    "id": "49",
    "division_id": "2",
    "name": "Noakhali",
    "bn_name": "নোয়াখালী",
    "lat": "22.869563",
    "long": "91.099398"
  },
  {
    "id": "50",
    "division_id": "2",
    "name": "Rangamati",
    "bn_name": "রাঙ্গামাটি",
    "lat": "22.7324",
    "long": "92.2985"
  }
]