[
  {
    "id": "1",
    "division_id": "3",
    "name": "Dhaka",
    "bn_name": "ঢাকা",
    "lat": "23.7115253",
    "long": "90.4111451"
  },
  {
    "id": "2",
    "division_id": "3",
    "name": "Faridpur",
    "bn_name": "ফরিদপুর",
    "lat": "23.6070822",
    "long": "89.8429406"
  },
  {
    "id": "3",
    "division_id": "3",
    "name": "Gazipur",
    "bn_name": "গাজীপুর",
    "lat": "24.0022858",
    "long": "90.4264283"
  },
  {
    "id": "4",
    "division_id": "3",
    "name": "Gopalganj",
    "bn_name": "গোপালগঞ্জ",
    "lat": "23.0050857",
    "long": "89.8266059"
  },
  {
    "id": "6",
    "division_id": "3",
    "name": "Kishoreganj",
    "bn_name": "কিশোরগঞ্জ",
    "lat": "24.444937",
    "long": "90.776575"
  },
  {
    "id": "7",
    "division_id": "3",
    "name": "Madaripur",
    "bn_name": "মাদারীপুর",
    "lat": "23.164102",
    "long": "90.1896805"
  },
  {
    "id": "8",
    "division_id": "3",
    "name": "Manikganj",
    "bn_name": "মানিকগঞ্জ",
    "lat": "23.8644",
    "long": "90.0047"
  },
  {
    "id": "9",
    "division_id": "3",
    "name": "Munshiganj",
    "bn_name": "মুন্সিগঞ্জ",
    "lat": "23.5422",
    "long": "90.5305"
  },
  {
    "id": "11",
    "division_id": "3",
    "name": "Narayanganj",
    "bn_name": "নারায়াণগঞ্জ",
    "lat": "23.63366",
    "long": "90.496482"
  },
  {
    "id": "12",
    "division_id": "3",
    "name": "Narsingdi",
    "bn_name": "নরসিংদী",
    "lat": "23.932233",
    "long": "90.71541"
  },
  {
    "id": "14",
    "division_id": "3",
    "name": "Rajbari",
    "bn_name": "রাজবাড়ি",
    "lat": "23.7574305",
    "long": "89.6444665"
  },
  {
    "id": "15",
    "division_id": "3",
    "name": "Shariatpur",
    "bn_name": "শরীয়তপুর",
    "lat": "23.2423",
    "long": "90.4348"
  },
  {
    "id": "17",
    "division_id": "3",
    "name": "Tangail",
    "bn_name": "টাঙ্গাইল",
    "lat": "24.2513",
    "long": "89.9167"
  }
]